O3B MPOWER F1           
1 54755U 22174A   24280.31849359 -.00000018  00000+0  00000+0 0  9998
2 54755   0.0523 345.7117 0006472 200.8661 240.6023  5.00113557 34391
